start=new Date('2022-06-08T00:00:00.000Z').valueOf();
sats=[{"GP_ID":"205598545","FILE":"3485136","RA_OF_ASC_NODE":"144.8796","MEAN_ELEMENT_THEORY":"SGP4","EPOCH":"2022-06-07T22:00:00.999936","OBJECT_TYPE":"PAYLOAD","SITE":"AFETR","OBJECT_NAME":"STARLINK-3778","ELEMENT_SET_NO":"999","ECCENTRICITY":"0.00016240","TIME_SYSTEM":"UTC","RCS_SIZE":"LARGE","OBJECT_ID":"2022-041R","MEAN_MOTION_DDOT":"0.0000000000000","INCLINATION":"53.2173","TLE_LINE2":"2 52276  53.2173 144.8796 0001624  37.4686   7.7811 15.39793958  1308","LAUNCH_DATE":"2022-04-21","SEMIMAJOR_AXIS":"6824.855","EPHEMERIS_TYPE":"0","CENTER_NAME":"EARTH","ARG_OF_PERICENTER":"37.4686","TLE_LINE1":"1 52276U 22041R   22158.91667824 -.00717225  00000-0 -19285-1 0  9994","PERIOD":"93.519","NORAD_CAT_ID":"52276","DECAY_DATE":null,"MEAN_MOTION":"15.39793958","REF_FRAME":"TEME","COUNTRY_CODE":"US","PERIAPSIS":"445.612","CLASSIFICATION_TYPE":"U","BSTAR":"-0.01928500000000","MEAN_ANOMALY":"7.7811","MEAN_MOTION_DOT":"-0.00717225","REV_AT_EPOCH":"130","APOAPSIS":"447.828"},{"REV_AT_EPOCH":"130","MEAN_MOTION_DOT":"-0.00716582","BSTAR":"-0.01951000000000","MEAN_ANOMALY":"352.9136","CLASSIFICATION_TYPE":"U","APOAPSIS":"448.905","PERIAPSIS":"446.777","MEAN_MOTION":"15.39414594","COUNTRY_CODE":"US","REF_FRAME":"TEME","NORAD_CAT_ID":"52277","PERIOD":"93.542","DECAY_DATE":null,"CENTER_NAME":"EARTH","ARG_OF_PERICENTER":"39.7883","TLE_LINE1":"1 52277U 22041S   22158.91667824 -.00716582  00000-0 -19510-1 0  9991","LAUNCH_DATE":"2022-04-21","SEMIMAJOR_AXIS":"6825.976","EPHEMERIS_TYPE":"0","TLE_LINE2":"2 52277  53.2173 144.8637 0001559  39.7883 352.9136 15.39414594  1305","INCLINATION":"53.2173","OBJECT_ID":"2022-041S","MEAN_MOTION_DDOT":"0.0000000000000","RCS_SIZE":"LARGE","TIME_SYSTEM":"UTC","ELEMENT_SET_NO":"999","ECCENTRICITY":"0.00015590","OBJECT_NAME":"STARLINK-3787","OBJECT_TYPE":"PAYLOAD","SITE":"AFETR","MEAN_ELEMENT_THEORY":"SGP4","RA_OF_ASC_NODE":"144.8637","EPOCH":"2022-06-07T22:00:00.999936","FILE":"3485136","GP_ID":"205598026"},{"REV_AT_EPOCH":"130","MEAN_MOTION_DOT":"-0.00717341","BSTAR":"-0.01916200000000","CLASSIFICATION_TYPE":"U","MEAN_ANOMALY":"12.8000","APOAPSIS":"447.230","PERIAPSIS":"445.038","MEAN_MOTION":"15.39992275","COUNTRY_CODE":"US","REF_FRAME":"TEME","NORAD_CAT_ID":"52278","PERIOD":"93.507","DECAY_DATE":null,"CENTER_NAME":"EARTH","TLE_LINE1":"1 52278U 22041T   22158.91667824 -.00717341  00000-0 -19162-1 0  9999","ARG_OF_PERICENTER":"37.9576","SEMIMAJOR_AXIS":"6824.269","LAUNCH_DATE":"2022-04-21","EPHEMERIS_TYPE":"0","TLE_LINE2":"2 52278  53.2174 144.8887 0001606  37.9576  12.8000 15.39992275  1305","INCLINATION":"53.2174","OBJECT_ID":"2022-041T","MEAN_MOTION_DDOT":"0.0000000000000","RCS_SIZE":"LARGE","TIME_SYSTEM":"UTC","ELEMENT_SET_NO":"999","ECCENTRICITY":"0.00016060","OBJECT_NAME":"STARLINK-3780","OBJECT_TYPE":"PAYLOAD","SITE":"AFETR","MEAN_ELEMENT_THEORY":"SGP4","RA_OF_ASC_NODE":"144.8887","EPOCH":"2022-06-07T22:00:00.999936","FILE":"3485136","GP_ID":"205597826"},{"APOAPSIS":"448.526","BSTAR":"-0.01942700000000","CLASSIFICATION_TYPE":"U","MEAN_ANOMALY":"0.1075","MEAN_MOTION_DOT":"-0.00716936","REV_AT_EPOCH":"130","REF_FRAME":"TEME","COUNTRY_CODE":"US","MEAN_MOTION":"15.39559200","PERIAPSIS":"446.302","TLE_LINE1":"1 52279U 22041U   22158.91667824 -.00716936  00000-0 -19427-1 0  9993","ARG_OF_PERICENTER":"36.9737","CENTER_NAME":"EARTH","DECAY_DATE":null,"PERIOD":"93.533","NORAD_CAT_ID":"52279","INCLINATION":"53.2173","TLE_LINE2":"2 52279  53.2173 144.8702 0001629  36.9737   0.1075 15.39559200  1303","LAUNCH_DATE":"2022-04-21","EPHEMERIS_TYPE":"0","SEMIMAJOR_AXIS":"6825.549","RCS_SIZE":"LARGE","MEAN_MOTION_DDOT":"0.0000000000000","OBJECT_ID":"2022-041U","ELEMENT_SET_NO":"999","ECCENTRICITY":"0.00016290","TIME_SYSTEM":"UTC","EPOCH":"2022-06-07T22:00:00.999936","RA_OF_ASC_NODE":"144.8702","MEAN_ELEMENT_THEORY":"SGP4","SITE":"AFETR","OBJECT_TYPE":"PAYLOAD","OBJECT_NAME":"STARLINK-3686","GP_ID":"205598266","FILE":"3485136"},{"OBJECT_ID":"2022-041V","MEAN_MOTION_DDOT":"0.0000000000000","RCS_SIZE":"LARGE","TIME_SYSTEM":"UTC","ELEMENT_SET_NO":"999","ECCENTRICITY":"0.00015790","SITE":"AFETR","OBJECT_TYPE":"PAYLOAD","OBJECT_NAME":"STARLINK-3764","RA_OF_ASC_NODE":"144.9159","MEAN_ELEMENT_THEORY":"SGP4","EPOCH":"2022-06-07T22:00:00.999936","FILE":"3485136","GP_ID":"205598466","BSTAR":"-0.01880300000000","CLASSIFICATION_TYPE":"U","MEAN_ANOMALY":"27.2030","MEAN_MOTION_DOT":"-0.00717915","REV_AT_EPOCH":"130","APOAPSIS":"445.454","PERIAPSIS":"443.300","MEAN_MOTION":"15.40587297","REF_FRAME":"TEME","COUNTRY_CODE":"US","PERIOD":"93.471","NORAD_CAT_ID":"52280","DECAY_DATE":null,"CENTER_NAME":"EARTH","ARG_OF_PERICENTER":"39.5230","TLE_LINE1":"1 52280U 22041V   22158.91667824 -.00717915  00000-0 -18803-1 0  9990","TLE_LINE2":"2 52280  53.2174 144.9159 0001579  39.5230  27.2030 15.40587297  1304","LAUNCH_DATE":"2022-04-21","SEMIMAJOR_AXIS":"6822.512","EPHEMERIS_TYPE":"0","INCLINATION":"53.2174"},{"INCLINATION":"53.2173","LAUNCH_DATE":"2022-04-21","SEMIMAJOR_AXIS":"6824.988","EPHEMERIS_TYPE":"0","TLE_LINE2":"2 52281  53.2173 144.8782 0001574  39.0807   4.2523 15.39748826  1302","CENTER_NAME":"EARTH","ARG_OF_PERICENTER":"39.0807","TLE_LINE1":"1 52281U 22041W   22158.91667824 -.00717120  00000-0 -19311-1 0  9994","NORAD_CAT_ID":"52281","PERIOD":"93.522","DECAY_DATE":null,"MEAN_MOTION":"15.39748826","COUNTRY_CODE":"US","REF_FRAME":"TEME","PERIAPSIS":"445.779","MEAN_MOTION_DOT":"-0.00717120","REV_AT_EPOCH":"130","CLASSIFICATION_TYPE":"U","BSTAR":"-0.01931100000000","MEAN_ANOMALY":"4.2523","APOAPSIS":"447.928","GP_ID":"205598363","FILE":"3485136","MEAN_ELEMENT_THEORY":"SGP4","RA_OF_ASC_NODE":"144.8782","EPOCH":"2022-06-07T22:00:00.999936","OBJECT_NAME":"STARLINK-3779","SITE":"AFETR","OBJECT_TYPE":"PAYLOAD","ECCENTRICITY":"0.00015740","ELEMENT_SET_NO":"999","TIME_SYSTEM":"UTC","RCS_SIZE":"LARGE","OBJECT_ID":"2022-041W","MEAN_MOTION_DDOT":"0.0000000000000"},{"RCS_SIZE":"LARGE","OBJECT_ID":"2022-041X","MEAN_MOTION_DDOT":"0.0000000000000","ELEMENT_SET_NO":"999","ECCENTRICITY":"0.00011160","TIME_SYSTEM":"UTC","RA_OF_ASC_NODE":"141.1120","MEAN_ELEMENT_THEORY":"SGP4","EPOCH":"2022-06-07T22:00:00.999936","SITE":"AFETR","OBJECT_TYPE":"PAYLOAD","OBJECT_NAME":"STARLINK-3783","GP_ID":"205598162","FILE":"3485136","BSTAR":"-0.00707210000000","MEAN_ANOMALY":"355.5378","CLASSIFICATION_TYPE":"U","REV_AT_EPOCH":"130","MEAN_MOTION_DOT":"-0.00715574","APOAPSIS":"367.089","MEAN_MOTION":"15.67403919","REF_FRAME":"TEME","COUNTRY_CODE":"US","PERIAPSIS":"365.583","CENTER_NAME":"EARTH","TLE_LINE1":"1 52282U 22041X   22158.91667824 -.00715574  00000-0 -70721-2 0  9999","ARG_OF_PERICENTER":"64.5033","PERIOD":"91.872","NORAD_CAT_ID":"52282","DECAY_DATE":null,"INCLINATION":"53.2173","TLE_LINE2":"2 52282  53.2173 141.1120 0001116  64.5033 355.5378 15.67403919  1307","SEMIMAJOR_AXIS":"6744.471","LAUNCH_DATE":"2022-04-21","EPHEMERIS_TYPE":"0"},{"INCLINATION":"53.2174","EPHEMERIS_TYPE":"0","LAUNCH_DATE":"2022-04-21","SEMIMAJOR_AXIS":"6823.683","TLE_LINE2":"2 52283  53.2174 144.8980 0001661  36.6300  19.5428 15.40190654  1308","TLE_LINE1":"1 52283U 22041Y   22158.91667824 -.00717621  00000-0 -19044-1 0  9995","ARG_OF_PERICENTER":"36.6300","CENTER_NAME":"EARTH","DECAY_DATE":null,"NORAD_CAT_ID":"52283","PERIOD":"93.495","COUNTRY_CODE":"US","REF_FRAME":"TEME","MEAN_MOTION":"15.40190654","PERIAPSIS":"444.415","APOAPSIS":"446.682","REV_AT_EPOCH":"130","MEAN_MOTION_DOT":"-0.00717621","MEAN_ANOMALY":"19.5428","BSTAR":"-0.01904400000000","CLASSIFICATION_TYPE":"U","GP_ID":"205597930","FILE":"3485136","EPOCH":"2022-06-07T22:00:00.999936","MEAN_ELEMENT_THEORY":"SGP4","RA_OF_ASC_NODE":"144.8980","OBJECT_NAME":"STARLINK-3789","SITE":"AFETR","OBJECT_TYPE":"PAYLOAD","ELEMENT_SET_NO":"999","ECCENTRICITY":"0.00016610","TIME_SYSTEM":"UTC","RCS_SIZE":"LARGE","MEAN_MOTION_DDOT":"0.0000000000000","OBJECT_ID":"2022-041Y"},{"DECAY_DATE":null,"NORAD_CAT_ID":"52284","PERIOD":"91.871","ARG_OF_PERICENTER":"63.4764","TLE_LINE1":"1 52284U 22041Z   22158.91667824 -.00715613  00000-0 -70698-2 0  9998","CENTER_NAME":"EARTH","LAUNCH_DATE":"2022-04-21","SEMIMAJOR_AXIS":"6744.444","EPHEMERIS_TYPE":"0","TLE_LINE2":"2 52284  53.2173 141.1170 0001122  63.4764 357.8791 15.67413271  1306","INCLINATION":"53.2173","APOAPSIS":"367.066","REV_AT_EPOCH":"130","MEAN_MOTION_DOT":"-0.00715613","BSTAR":"-0.00706980000000","MEAN_ANOMALY":"357.8791","CLASSIFICATION_TYPE":"U","PERIAPSIS":"365.552","COUNTRY_CODE":"US","REF_FRAME":"TEME","MEAN_MOTION":"15.67413271","OBJECT_NAME":"STARLINK-3561","SITE":"AFETR","OBJECT_TYPE":"PAYLOAD","EPOCH":"2022-06-07T22:00:00.999936","MEAN_ELEMENT_THEORY":"SGP4","RA_OF_ASC_NODE":"141.1170","FILE":"3485136","GP_ID":"205598546","MEAN_MOTION_DDOT":"0.0000000000000","OBJECT_ID":"2022-041Z","RCS_SIZE":"LARGE","TIME_SYSTEM":"UTC","ECCENTRICITY":"0.00011220","ELEMENT_SET_NO":"999"},{"EPOCH":"2022-06-07T22:00:00.999936","RA_OF_ASC_NODE":"144.9070","MEAN_ELEMENT_THEORY":"SGP4","SITE":"AFETR","OBJECT_TYPE":"PAYLOAD","OBJECT_NAME":"STARLINK-3775","GP_ID":"205598027","FILE":"3485136","RCS_SIZE":"LARGE","MEAN_MOTION_DDOT":"0.0000000000000","OBJECT_ID":"2022-041AA","ECCENTRICITY":"0.00015430","ELEMENT_SET_NO":"999","TIME_SYSTEM":"UTC","TLE_LINE1":"1 52285U 22041AA  22158.91667824 -.00717750  00000-0 -18923-1 0  9995","ARG_OF_PERICENTER":"41.1800","CENTER_NAME":"EARTH","DECAY_DATE":null,"PERIOD":"93.483","NORAD_CAT_ID":"52285","INCLINATION":"53.2174","TLE_LINE2":"2 52285  53.2174 144.9070 0001543  41.1800  20.3156 15.40388965  1308","LAUNCH_DATE":"2022-04-21","SEMIMAJOR_AXIS":"6823.097","EPHEMERIS_TYPE":"0","APOAPSIS":"446.015","CLASSIFICATION_TYPE":"U","BSTAR":"-0.01892300000000","MEAN_ANOMALY":"20.3156","REV_AT_EPOCH":"130","MEAN_MOTION_DOT":"-0.00717750","REF_FRAME":"TEME","COUNTRY_CODE":"US","MEAN_MOTION":"15.40388965","PERIAPSIS":"443.910"}];
